{"fetched_at":"2026-07-22T07:09:23.749Z","source":"https://celestrak.org/NORAD/elements/gp.php?GROUP=planet&FORMAT=JSON","constellation":"superdove","records":[{"OBJECT_NAME":"FLOCK 4Q-16","OBJECT_ID":"2023-174R","EPOCH":"2026-07-21T04:35:26.996352","CLASSIFICATION_TYPE":"U","MEAN_MOTION":15.50546526,"ECCENTRICITY":0.00065506,"INCLINATION":97.3811,"RA_OF_ASC_NODE":291.1203,"ARG_OF_PERICENTER":59.1443,"MEAN_ANOMALY":301.0453,"EPHEMERIS_TYPE":0,"NORAD_CAT_ID":58271,"ELEMENT_SET_NO":999,"REV_AT_EPOCH":15084,"BSTAR":0.00030864559,"MEAN_MOTION_DOT":0.00017566,"MEAN_MOTION_DDOT":0},{"OBJECT_NAME":"FLOCK 4Q-11","OBJECT_ID":"2023-174T","EPOCH":"2026-07-21T13:11:11.320512","CLASSIFICATION_TYPE":"U","MEAN_MOTION":15.51076919,"ECCENTRICITY":0.00059232,"INCLINATION":97.384,"RA_OF_ASC_NODE":292.1306,"ARG_OF_PERICENTER":52.4629,"MEAN_ANOMALY":307.716,"EPHEMERIS_TYPE":0,"NORAD_CAT_ID":58273,"ELEMENT_SET_NO":999,"REV_AT_EPOCH":15091,"BSTAR":0.00038621045,"MEAN_MOTION_DOT":0.00022432,"MEAN_MOTION_DDOT":0},{"OBJECT_NAME":"FLOCK 4Q-28","OBJECT_ID":"2023-174AA","EPOCH":"2026-07-21T04:37:15.255552","CLASSIFICATION_TYPE":"U","MEAN_MOTION":15.57002727,"ECCENTRICITY":0.00042675,"INCLINATION":97.387,"RA_OF_ASC_NODE":294.5573,"ARG_OF_PERICENTER":44.6722,"MEAN_ANOMALY":315.4876,"EPHEMERIS_TYPE":0,"NORAD_CAT_ID":58280,"ELEMENT_SET_NO":999,"REV_AT_EPOCH":15103,"BSTAR":0.00033879587,"MEAN_MOTION_DOT":0.00024392,"MEAN_MOTION_DDOT":0},{"OBJECT_NAME":"FLOCK 4Q-27","OBJECT_ID":"2023-174AC","EPOCH":"2026-07-21T12:21:22.451616","CLASSIFICATION_TYPE":"U","MEAN_MOTION":15.57241658,"ECCENTRICITY":0.00033726,"INCLINATION":97.38,"RA_OF_ASC_NODE":294.2931,"ARG_OF_PERICENTER":48.4228,"MEAN_ANOMALY":311.7316,"EPHEMERIS_TYPE":0,"NORAD_CAT_ID":58282,"ELEMENT_SET_NO":999,"REV_AT_EPOCH":15109,"BSTAR":0.00046171864,"MEAN_MOTION_DOT":0.0003361,"MEAN_MOTION_DDOT":0},{"OBJECT_NAME":"FLOCK 4Q-7","OBJECT_ID":"2023-174BQ","EPOCH":"2026-07-21T12:45:08.061120","CLASSIFICATION_TYPE":"U","MEAN_MOTION":15.57653997,"ECCENTRICITY":0.00040157,"INCLINATION":97.39,"RA_OF_ASC_NODE":295.2425,"ARG_OF_PERICENTER":18.1966,"MEAN_ANOMALY":341.9432,"EPHEMERIS_TYPE":0,"NORAD_CAT_ID":58318,"ELEMENT_SET_NO":999,"REV_AT_EPOCH":15109,"BSTAR":0.00045025902,"MEAN_MOTION_DOT":0.00033282,"MEAN_MOTION_DDOT":0},{"OBJECT_NAME":"FLOCK 4Q-2","OBJECT_ID":"2023-174BS","EPOCH":"2026-07-21T14:22:28.786656","CLASSIFICATION_TYPE":"U","MEAN_MOTION":15.51040649,"ECCENTRICITY":0.00041551,"INCLINATION":97.3835,"RA_OF_ASC_NODE":291.8925,"ARG_OF_PERICENTER":29.6997,"MEAN_ANOMALY":330.449,"EPHEMERIS_TYPE":0,"NORAD_CAT_ID":58320,"ELEMENT_SET_NO":999,"REV_AT_EPOCH":15093,"BSTAR":0.000421499,"MEAN_MOTION_DOT":0.00024457,"MEAN_MOTION_DDOT":0},{"OBJECT_NAME":"FLOCK 4Q-9","OBJECT_ID":"2023-174BU","EPOCH":"2026-07-21T11:37:38.239104","CLASSIFICATION_TYPE":"U","MEAN_MOTION":15.51583233,"ECCENTRICITY":0.00049843,"INCLINATION":97.3841,"RA_OF_ASC_NODE":291.8928,"ARG_OF_PERICENTER":28.8953,"MEAN_ANOMALY":331.2574,"EPHEMERIS_TYPE":0,"NORAD_CAT_ID":58322,"ELEMENT_SET_NO":999,"REV_AT_EPOCH":15090,"BSTAR":0.00047299899,"MEAN_MOTION_DOT":0.00028008,"MEAN_MOTION_DDOT":0},{"OBJECT_NAME":"FLOCK 4Q-4","OBJECT_ID":"2023-174BZ","EPOCH":"2026-07-21T12:06:57.756096","CLASSIFICATION_TYPE":"U","MEAN_MOTION":15.50059159,"ECCENTRICITY":0.00052707,"INCLINATION":97.3819,"RA_OF_ASC_NODE":291.0121,"ARG_OF_PERICENTER":56.8012,"MEAN_ANOMALY":303.3745,"EPHEMERIS_TYPE":0,"NORAD_CAT_ID":58327,"ELEMENT_SET_NO":999,"REV_AT_EPOCH":15087,"BSTAR":0.00041382228,"MEAN_MOTION_DOT":0.00023191,"MEAN_MOTION_DDOT":0},{"OBJECT_NAME":"FLOCK 4Q-13","OBJECT_ID":"2023-174CA","EPOCH":"2026-07-21T14:33:18.582048","CLASSIFICATION_TYPE":"U","MEAN_MOTION":15.53087194,"ECCENTRICITY":0.00052913,"INCLINATION":97.3995,"RA_OF_ASC_NODE":294.4657,"ARG_OF_PERICENTER":35.3802,"MEAN_ANOMALY":324.7801,"EPHEMERIS_TYPE":0,"NORAD_CAT_ID":58328,"ELEMENT_SET_NO":999,"REV_AT_EPOCH":15101,"BSTAR":0.00043087631,"MEAN_MOTION_DOT":0.00026917,"MEAN_MOTION_DDOT":0},{"OBJECT_NAME":"FLOCK 4BE-18","OBJECT_ID":"2024-149N","EPOCH":"2026-07-21T04:56:35.693952","CLASSIFICATION_TYPE":"U","MEAN_MOTION":15.42843744,"ECCENTRICITY":0.00054193,"INCLINATION":97.3716,"RA_OF_ASC_NODE":286.3152,"ARG_OF_PERICENTER":128.9498,"MEAN_ANOMALY":231.2233,"EPHEMERIS_TYPE":0,"NORAD_CAT_ID":60480,"ELEMENT_SET_NO":999,"REV_AT_EPOCH":10755,"BSTAR":0.00031546873,"MEAN_MOTION_DOT":0.00013757,"MEAN_MOTION_DDOT":0},{"OBJECT_NAME":"FLOCK 4BE-7","OBJECT_ID":"2024-149P","EPOCH":"2026-07-21T12:05:06.834048","CLASSIFICATION_TYPE":"U","MEAN_MOTION":15.41663425,"ECCENTRICITY":0.00044923,"INCLINATION":97.3742,"RA_OF_ASC_NODE":285.8973,"ARG_OF_PERICENTER":133.2399,"MEAN_ANOMALY":226.9224,"EPHEMERIS_TYPE":0,"NORAD_CAT_ID":60481,"ELEMENT_SET_NO":999,"REV_AT_EPOCH":10753,"BSTAR":0.00057775852,"MEAN_MOTION_DOT":0.0002432,"MEAN_MOTION_DDOT":0},{"OBJECT_NAME":"FLOCK 4BE-36","OBJECT_ID":"2024-149U","EPOCH":"2026-07-21T05:22:38.308800","CLASSIFICATION_TYPE":"U","MEAN_MOTION":15.43671035,"ECCENTRICITY":0.00051445,"INCLINATION":97.373,"RA_OF_ASC_NODE":287.0826,"ARG_OF_PERICENTER":136.2238,"MEAN_ANOMALY":223.9418,"EPHEMERIS_TYPE":0,"NORAD_CAT_ID":60486,"ELEMENT_SET_NO":999,"REV_AT_EPOCH":10760,"BSTAR":0.00029820533,"MEAN_MOTION_DOT":0.00013365,"MEAN_MOTION_DDOT":0},{"OBJECT_NAME":"FLOCK 4BE-25","OBJECT_ID":"2024-149V","EPOCH":"2026-07-21T05:12:39.594816","CLASSIFICATION_TYPE":"U","MEAN_MOTION":15.39648933,"ECCENTRICITY":0.00040218,"INCLINATION":97.3782,"RA_OF_ASC_NODE":285.617,"ARG_OF_PERICENTER":129.9257,"MEAN_ANOMALY":230.2343,"EPHEMERIS_TYPE":0,"NORAD_CAT_ID":60487,"ELEMENT_SET_NO":999,"REV_AT_EPOCH":10747,"BSTAR":0.00026803192,"MEAN_MOTION_DOT":0.00010492,"MEAN_MOTION_DDOT":0},{"OBJECT_NAME":"FLOCK 4BE-31","OBJECT_ID":"2024-149W","EPOCH":"2026-07-21T11:31:57.602784","CLASSIFICATION_TYPE":"U","MEAN_MOTION":15.45324516,"ECCENTRICITY":0.00041204,"INCLINATION":97.3785,"RA_OF_ASC_NODE":288.3055,"ARG_OF_PERICENTER":135.0458,"MEAN_ANOMALY":225.1125,"EPHEMERIS_TYPE":0,"NORAD_CAT_ID":60488,"ELEMENT_SET_NO":999,"REV_AT_EPOCH":10767,"BSTAR":0.00040518871,"MEAN_MOTION_DOT":0.00019252,"MEAN_MOTION_DDOT":0},{"OBJECT_NAME":"FLOCK 4BE-20","OBJECT_ID":"2024-149X","EPOCH":"2026-07-21T04:43:51.808224","CLASSIFICATION_TYPE":"U","MEAN_MOTION":15.38907484,"ECCENTRICITY":0.00054067,"INCLINATION":97.3681,"RA_OF_ASC_NODE":284.3903,"ARG_OF_PERICENTER":136.6218,"MEAN_ANOMALY":223.5453,"EPHEMERIS_TYPE":0,"NORAD_CAT_ID":60489,"ELEMENT_SET_NO":999,"REV_AT_EPOCH":10744,"BSTAR":0.00024188319,"MEAN_MOTION_DOT":0.00009234,"MEAN_MOTION_DDOT":0},{"OBJECT_NAME":"FLOCK 4BE-23","OBJECT_ID":"2024-149Y","EPOCH":"2026-07-21T04:43:19.439328","CLASSIFICATION_TYPE":"U","MEAN_MOTION":15.38466373,"ECCENTRICITY":0.00050602,"INCLINATION":97.3765,"RA_OF_ASC_NODE":284.7833,"ARG_OF_PERICENTER":140.5506,"MEAN_ANOMALY":219.6109,"EPHEMERIS_TYPE":0,"NORAD_CAT_ID":60490,"ELEMENT_SET_NO":999,"REV_AT_EPOCH":10742,"BSTAR":0.00027665307,"MEAN_MOTION_DOT":0.00010422,"MEAN_MOTION_DDOT":0}]}
