{"epoch":1784710044,"count":18256,"objects":[{"id":"58271","name":"FLOCK 4Q 16","type":"PAYLOAD","l1":"1 58271U 23174R   26202.19128468  .00017566  00000-0  30865-3 0  9991","l2":"2 58271  97.3811 291.1203 0006551  59.1443 301.0453 15.50546526150848"},{"id":"58273","name":"FLOCK 4Q 11","type":"PAYLOAD","l1":"1 58273U 23174T   26202.54943658  .00022432  00000-0  38621-3 0  9994","l2":"2 58273  97.3840 292.1306 0005923  52.4629 307.7160 15.51076919150912"},{"id":"58280","name":"FLOCK 4Q 28","type":"PAYLOAD","l1":"1 58280U 23174AA  26202.19253768  .00024392  00000-0  33880-3 0  9998","l2":"2 58280  97.3870 294.5573 0004268  44.6722 315.4876 15.57002727151039"},{"id":"58282","name":"FLOCK 4Q 27","type":"PAYLOAD","l1":"1 58282U 23174AC  26202.51484319  .00033610  00000-0  46172-3 0  9995","l2":"2 58282  97.3800 294.2931 0003373  48.4228 311.7316 15.57241658151090"},{"id":"58318","name":"FLOCK 4Q 7","type":"PAYLOAD","l1":"1 58318U 23174BQ  26202.53134330  .00033282  00000-0  45026-3 0  9994","l2":"2 58318  97.3900 295.2425 0004016  18.1966 341.9432 15.57653997151095"},{"id":"58320","name":"FLOCK 4Q 2","type":"PAYLOAD","l1":"1 58320U 23174BS  26202.59894429  .00024457  00000-0  42150-3 0  9994","l2":"2 58320  97.3835 291.8925 0004155  29.6997 330.4490 15.51040649150934"},{"id":"58322","name":"FLOCK 4Q 9","type":"PAYLOAD","l1":"1 58322U 23174BU  26202.48447036  .00028008  00000-0  47300-3 0  9990","l2":"2 58322  97.3841 291.8928 0004984  28.8953 331.2574 15.51583233150909"},{"id":"58327","name":"FLOCK 4Q 4","type":"PAYLOAD","l1":"1 58327U 23174BZ  26202.50483514  .00023191  00000-0  41382-3 0  9991","l2":"2 58327  97.3819 291.0121 0005271  56.8012 303.3745 15.50059159150873"},{"id":"58328","name":"FLOCK 4Q 13","type":"PAYLOAD","l1":"1 58328U 23174CA  26202.60646507  .00026917  00000-0  43088-3 0  9990","l2":"2 58328  97.3995 294.4657 0005291  35.3802 324.7801 15.53087194151011"},{"id":"60480","name":"FLOCK 4BE 18","type":"PAYLOAD","l1":"1 60480U 24149N   26202.20596868  .00013757  00000-0  31547-3 0  9990","l2":"2 60480  97.3716 286.3152 0005419 128.9498 231.2233 15.42843744107556"},{"id":"60481","name":"FLOCK 4BE 7","type":"PAYLOAD","l1":"1 60481U 24149P   26202.50355132  .00024320  00000-0  57776-3 0  9991","l2":"2 60481  97.3742 285.8973 0004492 133.2399 226.9224 15.41663425107534"},{"id":"60486","name":"FLOCK 4BE 36","type":"PAYLOAD","l1":"1 60486U 24149U   26202.22405450  .00013365  00000-0  29821-3 0  9991","l2":"2 60486  97.3730 287.0826 0005145 136.2238 223.9418 15.43671035107606"},{"id":"60487","name":"FLOCK 4BE 25","type":"PAYLOAD","l1":"1 60487U 24149V   26202.21712494  .00010492  00000-0  26803-3 0  9995","l2":"2 60487  97.3782 285.6170 0004022 129.9257 230.2343 15.39648933107472"},{"id":"60488","name":"FLOCK 4BE 31","type":"PAYLOAD","l1":"1 60488U 24149W   26202.48052781  .00019252  00000-0  40519-3 0  9994","l2":"2 60488  97.3785 288.3055 0004120 135.0458 225.1125 15.45324516107676"},{"id":"60489","name":"FLOCK 4BE 20","type":"PAYLOAD","l1":"1 60489U 24149X   26202.19712741  .00009234  00000-0  24188-3 0  9995","l2":"2 60489  97.3681 284.3903 0005407 136.6218 223.5453 15.38907484107444"},{"id":"60490","name":"FLOCK 4BE 23","type":"PAYLOAD","l1":"1 60490U 24149Y   26202.19675277  .00010422  00000-0  27665-3 0  9993","l2":"2 60490  97.3765 284.7833 0005060 140.5506 219.6109 15.38466373107423"}]}